ONEWEB-0685             
1 54679U 22166AP  24312.59676767  .00000038  00000+0  60821-4 0  9994
2 54679  87.9332   0.8324 0002060 101.3948 258.7417 13.21826499 94390
ONEWEB-0712             
1 54680U 22166AQ  24313.35144678 -.00000045  00000+0 -15244-3 0  9990
2 54680  87.9105 345.4776 0002468  91.1598 268.9815 13.16592259 95437
ONEWEB-0714             
1 54681U 22166AR  24313.58713006 -.00000023  00000+0 -86188-4 0  9995
2 54681  87.9333   0.6244 0002098 102.2676 257.8693 13.21827769 94647
ONEWEB-0532             
1 55140U 23004A   24312.88205818  .00000095  00000+0  21236-3 0  9996
2 55140  87.9073 122.6588 0001131 104.9922 255.1334 13.17647456 90372
ONEWEB-0533             
1 55141U 23004B   24313.42235049  .00000508  00000+0  13778-2 0  9997
2 55141  87.8855 107.2963 0001566  95.4855 264.6452 13.12443629 91229
ONEWEB-0541             
1 55142U 23004C   24313.07050148 -.00000145  00000+0 -44388-3 0  9995
2 55142  87.8884 137.8237 0001466  86.9038 273.2257 13.11416620 89138
ONEWEB-0543             
1 55143U 23004D   24312.94240128  .00000021  00000+0  20097-4 0  9993
2 55143  87.9076  92.2001 0001816  90.6620 269.4720 13.18689113 92439
ONEWEB-0544             
1 55144U 23004E   24312.93609241  .00000000  00000+0 -33501-4 0  9990
2 55144  87.9078  92.1881 0001514  88.4397 271.6909 13.18687344 92436
